[{"OBJECT_NAME":"SITRO-AIS 5 (KATYS)","OBJECT_ID":"2023-091L","EPOCH":"2026-03-09T22:36:44.932608","MEAN_MOTION":15.27079182,"ECCENTRICITY":0.00133776,"INCLINATION":97.5176,"RA_OF_ASC_NODE":132.0172,"ARG_OF_PERICENTER":94.5677,"MEAN_ANOMALY":265.709,"EPHEMERIS_TYPE":0,"CLASSIFICATION_TYPE":"U","NORAD_CAT_ID":57176,"ELEMENT_SET_NO":999,"REV_AT_EPOCH":14918,"BSTAR":0.00057530772,"MEAN_MOTION_DOT":0.00015262,"MEAN_MOTION_DDOT":0},{"OBJECT_NAME":"STARLINK-35682","OBJECT_ID":"2025-262M","EPOCH":"2026-03-08T23:39:11.976192","MEAN_MOTION":15.27578046,"ECCENTRICITY":0.00016081,"INCLINATION":43.0003,"RA_OF_ASC_NODE":300.5887,"ARG_OF_PERICENTER":277.903,"MEAN_ANOMALY":82.1639,"EPHEMERIS_TYPE":0,"CLASSIFICATION_TYPE":"U","NORAD_CAT_ID":66467,"ELEMENT_SET_NO":999,"REV_AT_EPOCH":1879,"BSTAR":0.001003905,"MEAN_MOTION_DOT":0.00027465,"MEAN_MOTION_DDOT":0}]
